MEAN_MOTION;ECCENTRICITY;INCLINATION;RA_OF_ASC_NODE;ARG_OF_PERICENTER;MEAN_ANOMALY;BSTAR;MEAN_MOTION_DOT;MEAN_MOTION_DDOT;TYPE
14.54752826;9.15E-5;47.0013;145.1861;52.8842;307.2125;2.3521E-5;-6.4E-7;0;Orbcomm
14.5475304;8.74E-5;47.0012;140.347;59.8927;300.2043;2.3511E-5;-6.4E-7;0;Orbcomm
14.54753307;8.47E-5;47.0011;135.8304;66.7449;293.3524;2.6241E-5;-5.2E-7;0;Orbcomm
14.54753499;8.22E-5;47.0011;131.6364;73.6653;286.4322;2.7283E-5;-4.7E-7;0;Orbcomm
14.54720945;8.88E-5;47.0008;127.1194;71.2287;288.8693;2.8221E-5;-4.3E-7;0;Orbcomm
14.54720767;9.07E-5;47.001;126.797;75.4721;284.6264;2.8432E-5;-4.3E-7;0;Orbcomm
14.54720359;9.18E-5;47.0012;122.2815;84.4332;275.6657;2.8279E-5;-4.3E-7;0;Orbcomm
14.54720621;8.96E-5;47.001;117.4413;91.4421;268.6565;2.8107E-5;-4.4E-7;0;Orbcomm
14.5472073;9.01E-5;47.0011;112.9248;99.2333;260.8653;1.8799E-5;-8.4E-7;0;Orbcomm
14.54721186;9.31E-5;47.0011;103.5694;115.0562;245.0419;2.2289E-5;-6.9E-7;0;Orbcomm
14.5472121;9.31E-5;47.0012;103.2472;115.1458;244.9523;2.2438E-5;-6.8E-7;0;Orbcomm
14.54721531;9.57E-5;47.0012;98.7306;122.202;237.8957;2.6191E-5;-5.2E-7;0;Orbcomm
14.54721645;9.61E-5;47.0012;96.795;125.4261;234.6713;2.6624E-5;-5.0E-7;0;Orbcomm
14.54722008;9.96E-5;47.0012;92.601;131.9181;228.1788;3.0808E-5;-3.2E-7;0;Orbcomm
14.54722044;0.0001;47.0012;91.9558;132.9636;227.1332;3.1405E-5;-3.0E-7;0;Orbcomm
14.5472235;0.0001021;47.0013;89.375;136.0008;224.0957;3.7139E-5;-5.0E-8;0;Orbcomm
14.54722473;0.0001036;47.0013;87.7618;139.0949;221.0013;3.7619E-5;-3.0E-8;0;Orbcomm
14.54722504;0.000104;47.0013;87.4392;139.6643;220.4318;3.8303E-5;0;0;Orbcomm
14.54722741;0.0001062;47.0014;84.8584;142.4765;217.6193;4.1193E-5;1.3E-7;0;Orbcomm
14.5472291;0.0001077;47.0014;82.6001;145.5191;214.5763;4.1552E-5;1.4E-7;0;Orbcomm
14.54722997;0.0001087;47.0015;81.6323;146.2459;213.8494;4.2528E-5;1.8E-7;0;Orbcomm
14.54723108;0.0001099;47.0015;80.342;147.6785;212.4166;4.3589E-5;2.3E-7;0;Orbcomm
14.54723276;0.0001119;47.0016;78.0837;150.8884;209.2062;4.3852E-5;2.4E-7;0;Orbcomm
14.54723625;0.0001164;47.0017;73.2446;156.2294;203.8644;4.3182E-5;2.1E-7;0;Orbcomm
14.54723711;0.0001186;47.0018;71.9543;157.8615;202.232;4.2562E-5;1.8E-7;0;Orbcomm
14.54723981;0.0001223;47.0019;68.4057;161.8756;198.2172;4.1646E-5;1.4E-7;0;Orbcomm
14.54724142;0.0001248;47.002;66.1476;164.1699;195.9224;4.0582E-5;1.0E-7;0;Orbcomm
14.54724282;0.0001274;47.0021;63.8894;166.733;193.3588;3.9462E-5;5.0E-8;0;Orbcomm
14.54724389;0.0001296;47.0021;61.9539;168.4209;191.6705;3.8092E-5;-1.0E-8;0;Orbcomm
14.54724536;0.0001324;47.0022;59.3731;171.2515;188.8392;3.6326E-5;-9.0E-8;0;Orbcomm
14.54724647;0.0001349;47.0023;57.4376;173.0416;187.0487;3.5166E-5;-1.4E-7;0;Orbcomm
14.5472481;0.0001385;47.0024;54.2115;175.666;184.4236;3.2834E-5;-2.4E-7;0;Orbcomm
14.54724913;0.00014;47.0024;52.9212;176.8114;183.2779;3.4037E-5;-1.8E-7;0;Orbcomm
14.54725137;0.0001456;47.0025;48.0824;181.6352;178.4527;3.1654E-5;-2.9E-7;0;Orbcomm
14.54725335;0.0001517;47.0026;43.2434;185.999;174.0876;2.95E-5;-3.8E-7;0;Orbcomm
14.54725475;0.0001547;47.0027;40.0174;188.319;171.7669;2.8252E-5;-4.3E-7;0;Orbcomm
14.54725793;0.0001612;47.0029;34.5334;193.2646;166.8196;2.9878E-5;-3.6E-7;0;Orbcomm
14.54726036;0.0001651;47.003;30.9848;196.1274;163.9557;3.0668E-5;-3.3E-7;0;Orbcomm
14.54726166;0.000166;47.003;29.6945;196.7744;163.3085;3.3146E-5;-2.2E-7;0;Orbcomm
14.54726417;0.0001698;47.0031;26.4686;199.4856;160.5963;3.3849E-5;-1.9E-7;0;Orbcomm
14.54726706;0.0001728;47.0032;23.2428;202.3685;157.7124;3.6706E-5;-7.0E-8;0;Orbcomm
14.54726803;0.0001746;47.0032;21.9524;203.1709;156.9096;3.6902E-5;-6.0E-8;0;Orbcomm
14.54727166;0.0001789;47.0032;17.7588;206.177;153.9024;3.9405E-5;5.0E-8;0;Orbcomm
14.54727228;0.0001801;47.0032;17.1136;206.395;153.6843;3.9415E-5;5.0E-8;0;Orbcomm
14.54727587;0.0001848;47.0032;12.5975;210.0893;149.9886;3.9819E-5;7.0E-8;0;Orbcomm
14.54727691;0.0001857;47.0032;11.3072;210.9059;149.1716;4.0597E-5;1.0E-7;0;Orbcomm
14.54727994;0.0001912;47.0031;7.4361;213.7618;146.3144;4.0604E-5;1.0E-7;0;Orbcomm
14.54728049;0.0001919;47.0031;6.4684;213.9611;146.115;3.9795E-5;6.0E-8;0;Orbcomm
14.5472832;0.0001959;47.003;2.9199;216.5644;143.5106;3.9602E-5;6.0E-8;0;Orbcomm
14.5472841;0.0001972;47.003;1.6295;217.1704;142.9044;3.9495E-5;5.0E-8;0;Orbcomm
14.54728635;0.0002007;47.0029;358.7261;219.2743;140.7996;3.918E-5;4.0E-8;0;Orbcomm
14.54728961;0.0002044;47.0028;353.5646;222.455;137.6176;3.8117E-5;-1.0E-8;0;Orbcomm
14.54729223;0.0002088;47.0028;349.0482;225.202;134.8695;3.6626E-5;-7.0E-8;0;Orbcomm
14.54729438;0.000212;47.0027;344.8544;228.0528;132.0176;3.4266E-5;-1.8E-7;0;Orbcomm
14.54729633;0.0002145;47.0027;341.3059;230.4732;129.5963;3.4162E-5;-1.8E-7;0;Orbcomm
14.54729674;0.0002165;47.0026;339.693;231.1146;128.9545;3.221E-5;-2.6E-7;0;Orbcomm
14.54729887;0.0002209;47.0025;335.1766;233.5669;126.5012;2.9958E-5;-3.6E-7;0;Orbcomm
14.54729904;0.0002211;47.0025;334.854;233.7796;126.2884;3.0073E-5;-3.6E-7;0;Orbcomm
14.54730117;0.0002239;47.0025;330.3377;237.089;122.9779;2.8336E-5;-4.3E-7;0;Orbcomm
14.5473013;0.000224;47.0025;330.0152;237.3178;122.7491;2.8413E-5;-4.3E-7;0;Orbcomm
14.54730342;0.0002272;47.0023;325.4988;240.3473;119.7185;2.8012E-5;-4.5E-7;0;Orbcomm
14.54730436;0.0002292;47.0022;322.2728;242.4677;117.5974;2.6101E-5;-5.3E-7;0;Orbcomm
14.54730508;0.0002299;47.0022;320.6599;243.2225;116.8424;2.5376E-5;-5.6E-7;0;Orbcomm
14.54730508;0.0002299;47.0022;320.6599;243.2225;116.8424;2.5376E-5;-5.6E-7;0;Orbcomm
14.54731025;0.0002372;47.0018;307.1105;251.9241;108.1385;2.3995E-5;-6.2E-7;0;Orbcomm
14.54731029;0.0002372;47.0018;306.7879;252.2259;107.8366;2.3875E-5;-6.2E-7;0;Orbcomm
14.5473119;0.0002389;47.0018;302.2714;255.0875;104.9745;2.3107E-5;-6.6E-7;0;Orbcomm
14.54731202;0.0002388;47.0018;301.9488;255.3632;104.6987;2.3265E-5;-6.5E-7;0;Orbcomm
14.54731332;0.0002409;47.0017;297.4323;257.8715;102.1899;2.1859E-5;-7.1E-7;0;Orbcomm
14.54731337;0.0002409;47.0017;297.1097;258.0243;102.0371;2.1537E-5;-7.3E-7;0;Orbcomm
14.54731426;0.0002419;47.0017;292.5932;261.1459;98.9151;1.9033E-5;-8.3E-7;0;Orbcomm
14.54731445;0.0002423;47.0017;292.2707;261.1946;98.8663;1.8819E-5;-8.4E-7;0;Orbcomm
14.54731497;0.0002433;47.0017;289.3672;262.9845;97.0762;1.6296E-5;-9.5E-7;0;Orbcomm
14.54731592;0.0002443;47.0017;285.1734;265.7828;94.2777;1.524E-5;-1.0E-6;0;Orbcomm
14.54731602;0.0002442;47.0017;284.8508;265.9298;94.1307;1.4696E-5;-1.02E-6;0;Orbcomm
14.54731713;0.0002443;47.0017;280.3343;268.9689;91.0915;1.3689E-5;-1.07E-6;0;Orbcomm
14.54731745;0.0002439;47.0017;279.044;269.8515;90.2089;1.3728E-5;-1.06E-6;0;Orbcomm
14.54731893;0.0002446;47.0017;275.4953;271.9681;88.0923;1.3643E-5;-1.07E-6;0;Orbcomm
14.54732058;0.0002456;47.0016;270.9789;274.626;85.4343;1.4924E-5;-1.01E-6;0;Orbcomm
14.54732087;0.0002458;47.0016;270.6563;274.7441;85.3162;1.5405E-5;-9.9E-7;0;Orbcomm
14.54732195;0.0002445;47.0016;269.0433;275.9502;84.1104;1.7777E-5;-8.9E-7;0;Orbcomm
14.54732293;0.0002451;47.0015;266.1398;277.6712;82.3893;1.7792E-5;-8.9E-7;0;Orbcomm
14.54732419;0.0002449;47.0015;264.5269;278.5142;81.5465;2.0115E-5;-7.9E-7;0;Orbcomm
14.54732665;0.0002447;47.0015;260.0104;281.3169;78.7441;2.3239E-5;-6.5E-7;0;Orbcomm
14.5473288;0.0002438;47.0015;255.494;284.1214;75.9399;2.4957E-5;-5.8E-7;0;Orbcomm
14.54733038;0.0002442;47.0015;252.2679;286.1498;73.9117;2.5215E-5;-5.7E-7;0;Orbcomm
14.54733331;0.0002424;47.0016;246.7838;289.8751;70.1872;2.6736E-5;-5.0E-7;0;Orbcomm
14.54733591;0.0002405;47.0016;241.6223;293.4777;66.5854;2.6535E-5;-5.1E-7;0;Orbcomm
14.54733812;0.0002394;47.0016;237.7511;295.9094;64.1544;2.6444E-5;-5.1E-7;0;Orbcomm
14.54733884;0.0002382;47.0016;236.7834;296.706;63.358;2.6854E-5;-5.0E-7;0;Orbcomm
14.54734214;0.0002372;47.0016;233.2349;298.9249;61.1397;3.0632E-5;-3.3E-7;0;Orbcomm
14.5473423;0.0002364;47.0015;232.2671;299.7185;60.3464;2.8795E-5;-4.1E-7;0;Orbcomm
14.54734345;0.0002365;47.0015;230.3316;301.0325;59.0326;2.8803E-5;-4.1E-7;0;Orbcomm
14.54734531;0.0002346;47.0014;227.7509;302.7693;57.2965;2.962E-5;-3.8E-7;0;Orbcomm
14.54734726;0.0002338;47.0013;225.1701;304.4868;55.5795;3.1268E-5;-3.1E-7;0;Orbcomm
14.54734957;0.0002318;47.0013;222.912;305.9956;54.0713;3.3922E-5;-1.9E-7;0;Orbcomm
14.54735174;0.0002296;47.0012;219.3633;308.2188;51.849;3.3275E-5;-2.2E-7;0;Orbcomm
14.54735248;0.0002289;47.0011;218.3956;308.9476;51.1204;3.3947E-5;-1.9E-7;0;Orbcomm
14.54735509;0.0002258;47.001;213.8792;312.0971;47.9721;3.3768E-5;-2.0E-7;0;Orbcomm
14.54735791;0.0002225;47.0009;209.0402;315.5795;44.491;3.3453E-5;-2.1E-7;0;Orbcomm
14.54736025;0.000219;47.0008;204.5237;318.8538;41.2181;3.2466E-5;-2.5E-7;0;Orbcomm
14.54736138;0.0002173;47.0008;201.9428;320.6143;39.4583;3.1362E-5;-3.0E-7;0;Orbcomm
14.54736238;0.0002154;47.0008;200.0073;322.1717;37.9015;3.0841E-5;-3.2E-7;0;Orbcomm
14.54736453;0.0002113;47.0007;195.8135;325.2221;34.8525;2.983E-5;-3.7E-7;0;Orbcomm
14.54736459;0.0002115;47.0007;195.4909;325.4847;34.59;2.9384E-5;-3.9E-7;0;Orbcomm
14.54736473;0.0002113;47.0007;195.1683;325.7208;34.3539;2.8992E-5;-4.0E-7;0;Orbcomm
14.54736645;0.0002073;47.0006;190.6519;329.2015;30.8747;2.569E-5;-5.5E-7;0;Orbcomm
14.5473686;0.0002034;47.0005;186.1355;332.7442;27.3335;2.4153E-5;-6.1E-7;0;Orbcomm
14.54736994;0.0002009;47.0005;183.232;334.9806;25.098;2.2725E-5;-6.7E-7;0;Orbcomm
14.54737147;0.0001984;47.0004;181.2965;336.6001;23.4792;2.4001E-5;-6.2E-7;0;Orbcomm
14.5473748;0.0001941;47.0003;177.1026;339.8834;20.1974;2.7315E-5;-4.8E-7;0;Orbcomm
14.54737515;0.0001937;47.0003;176.78;340.2388;19.842;2.7805E-5;-4.5E-7;0;Orbcomm
14.54737916;0.0001889;47.0002;172.2635;343.9155;16.1669;3.2504E-5;-2.5E-7;0;Orbcomm
14.54738434;0.000183;47.0001;167.4243;348.1591;11.925;3.9338E-5;4.0E-8;0;Orbcomm
14.54739124;0.0001775;47.0001;161.2947;353.4959;6.5902;4.7623E-5;4.0E-7;0;Orbcomm
14.5473928;0.0001756;47.0001;160.0042;354.7648;5.3218;4.9161E-5;4.7E-7;0;Orbcomm
14.54739718;0.0001716;47.0001;156.4555;357.998;2.0897;5.3882E-5;6.7E-7;0;Orbcomm
14.54739901;0.000169;47.0001;155.165;359.2424;0.8457;5.5812E-5;7.6E-7;0;Orbcomm
